{"type": "FeatureCollection", "features": [ {"type": "Feature", "properties": {"norad_id": 34546, "name": "COSMOS 2251 DEB", "group": "cosmos-2251-debris", "lat": 66.60651002914553, "lon": 47.065327037778594, "alt_km": 742.6913143879774, "timestamp": "2025-12-02T08:59:33.109301+00:00", "meta": {"OBJECT_NAME": "COSMOS 2251 DEB", "OBJECT_ID": "1993-036UG", "EPOCH": "2025-12-01T23:04:41.348352", "MEAN_MOTION": 14.45325488, "ECCENTRICITY": 0.0021651, "INCLINATION": 74.0312, "RA_OF_ASC_NODE": 269.2805, "ARG_OF_PERICENTER": 344.1995, "MEAN_ANOMALY": 134.3223, "EPHEMERIS_TYPE": 0, "CLASSIFICATION_TYPE": "U", "NORAD_CAT_ID": 34546, "ELEMENT_SET_NO": 999, "REV_AT_EPOCH": 87870, "BSTAR": 0.00083166, "MEAN_MOTION_DOT": 2.904e-05, "MEAN_MOTION_DDOT": 0}, "tle": {"line1": "1 34546U 93036UG  25335.96158968  .00002904  00000+0  83166-3 0  9994", "line2": "2 34546  74.0312 269.2805 0021651 344.1995 134.3223 14.45325488878705"}}, "geometry": {"type": "Point", "coordinates": [47.065327037778594, 66.60651002914553]}}, {"type": "Feature", "properties": {"norad_id": 34547, "name": "COSMOS 2251 DEB", "group": "cosmos-2251-debris", "lat": 17.39590068582596, "lon": 126.04281169679686, "alt_km": 668.5449322195227, "timestamp": "2025-12-02T08:59:33.109312+00:00", "meta": {"OBJECT_NAME": "COSMOS 2251 DEB", "OBJECT_ID": "1993-036UH", "EPOCH": "2025-12-01T11:42:14.123808", "MEAN_MOTION": 14.71865673, "ECCENTRICITY": 0.0019031, "INCLINATION": 74.0293, "RA_OF_ASC_NODE": 122.6199, "ARG_OF_PERICENTER": 202.969, "MEAN_ANOMALY": 157.0633, "EPHEMERIS_TYPE": 0, "CLASSIFICATION_TYPE": "U", "NORAD_CAT_ID": 34547, "ELEMENT_SET_NO": 999, "REV_AT_EPOCH": 88356, "BSTAR": 0.0022907065, "MEAN_MOTION_DOT": 0.00014375, "MEAN_MOTION_DDOT": 0}, "tle": {"line1": "1 34547U 93036UH  25335.48766347  .00014375  00000+0  22907-2 0  9998", "line2": "2 34547  74.0293 122.6199 0019031 202.9690 157.0633 14.71865673883565"}}, "geometry": {"type": "Point", "coordinates": [126.04281169679686, 17.39590068582596]}}, {"type": "Feature", "properties": {"norad_id": 34553, "name": "COSMOS 2251 DEB", "group": "cosmos-2251-debris", "lat": 73.35757675555395, "lon": -41.78331188659565, "alt_km": 707.1907618815121, "timestamp": "2025-12-02T08:59:33.109322+00:00", "meta": {"OBJECT_NAME": "COSMOS 2251 DEB", "OBJECT_ID": "1993-036UP", "EPOCH": "2025-12-02T02:40:06.218112", "MEAN_MOTION": 14.57554292, "ECCENTRICITY": 0.0019751, "INCLINATION": 74.0258, "RA_OF_ASC_NODE": 212.1081, "ARG_OF_PERICENTER": 290.3209, "MEAN_ANOMALY": 222.2069, "EPHEMERIS_TYPE": 0, "CLASSIFICATION_TYPE": "U", "NORAD_CAT_ID": 34553, "ELEMENT_SET_NO": 999, "REV_AT_EPOCH": 87941, "BSTAR": 0.0013244, "MEAN_MOTION_DOT": 6.018e-05, "MEAN_MOTION_DDOT": 0}, "tle": {"line1": "1 34553U 93036UP  25336.11118308  .00006018  00000+0  13244-2 0  9993", "line2": "2 34553  74.0258 212.1081 0019751 290.3209 222.2069 14.57554292879417"}}, "geometry": {"type": "Point", "coordinates": [-41.78331188659565, 73.35757675555395]}}, {"type": "Feature", "properties": {"norad_id": 34554, "name": "COSMOS 2251 DEB", "group": "cosmos-2251-debris", "lat": -34.353434060654386, "lon": 149.35930036084724, "alt_km": 786.9588564892883, "timestamp": "2025-12-02T08:59:33.109333+00:00", "meta": {"OBJECT_NAME": "COSMOS 2251 DEB", "OBJECT_ID": "1993-036UQ", "EPOCH": "2025-12-01T09:20:45.697920", "MEAN_MOTION": 14.37898426, "ECCENTRICITY": 0.0022484, "INCLINATION": 74.0383, "RA_OF_ASC_NODE": 319.8912, "ARG_OF_PERICENTER": 25.0475, "MEAN_ANOMALY": 132.7125, "EPHEMERIS_TYPE": 0, "CLASSIFICATION_TYPE": "U", "NORAD_CAT_ID": 34554, "ELEMENT_SET_NO": 999, "REV_AT_EPOCH": 87592, "BSTAR": 0.00040434985, "MEAN_MOTION_DOT": 1.198e-05, "MEAN_MOTION_DDOT": 0}, "tle": {"line1": "1 34554U 93036UQ  25335.38941780  .00001198  00000+0  40435-3 0  9997", "line2": "2 34554  74.0383 319.8912 0022484  25.0475 132.7125 14.37898426875928"}}, "geometry": {"type": "Point", "coordinates": [149.35930036084724, -34.353434060654386]}}, {"type": "Feature", "properties": {"norad_id": 34556, "name": "COSMOS 2251 DEB", "group": "cosmos-2251-debris", "lat": -21.589916825433008, "lon": 138.70377646053166, "alt_km": 647.5411173913508, "timestamp": "2025-12-02T08:59:33.109343+00:00", "meta": {"OBJECT_NAME": "COSMOS 2251 DEB", "OBJECT_ID": "1993-036US", "EPOCH": "2025-12-01T22:27:40.520160", "MEAN_MOTION": 14.77241629, "ECCENTRICITY": 0.0009301, "INCLINATION": 74.015, "RA_OF_ASC_NODE": 146.0785, "ARG_OF_PERICENTER": 204.2468, "MEAN_ANOMALY": 320.6588, "EPHEMERIS_TYPE": 0, "CLASSIFICATION_TYPE": "U", "NORAD_CAT_ID": 34556, "ELEMENT_SET_NO": 999, "REV_AT_EPOCH": 88169, "BSTAR": 0.0025039, "MEAN_MOTION_DOT": 0.00017778, "MEAN_MOTION_DDOT": 0}, "tle": {"line1": "1 34556U 93036US  25335.93588565  .00017778  00000+0  25039-2 0  9991", "line2": "2 34556  74.0150 146.0785 0009301 204.2468 320.6588 14.77241629881699"}}, "geometry": {"type": "Point", "coordinates": [138.70377646053166, -21.589916825433008]}}, {"type": "Feature", "properties": {"norad_id": 34560, "name": "COSMOS 2251 DEB", "group": "cosmos-2251-debris", "lat": 71.42897162018097, "lon": -139.13387062356577, "alt_km": 658.7885572027199, "timestamp": "2025-12-02T08:59:33.109353+00:00", "meta": {"OBJECT_NAME": "COSMOS 2251 DEB", "OBJECT_ID": "1993-036UW", "EPOCH": "2025-12-01T23:31:39.635040", "MEAN_MOTION": 14.71677456, "ECCENTRICITY": 0.0015451, "INCLINATION": 74.0163, "RA_OF_ASC_NODE": 163.0799, "ARG_OF_PERICENTER": 243.63, "MEAN_ANOMALY": 268.3545, "EPHEMERIS_TYPE": 0, "CLASSIFICATION_TYPE": "U", "NORAD_CAT_ID": 34560, "ELEMENT_SET_NO": 999, "REV_AT_EPOCH": 88093, "BSTAR": 0.0022458, "MEAN_MOTION_DOT": 0.00014018, "MEAN_MOTION_DDOT": 0}, "tle": {"line1": "1 34560U 93036UW  25335.98031985  .00014018  00000+0  22458-2 0  9996", "line2": "2 34560  74.0163 163.0799 0015451 243.6300 268.3545 14.71677456880939"}}, "geometry": {"type": "Point", "coordinates": [-139.13387062356577, 71.42897162018097]}}, {"type": "Feature", "properties": {"norad_id": 34563, "name": "COSMOS 2251 DEB", "group": "cosmos-2251-debris", "lat": 67.38444821875729, "lon": -93.54688898446062, "alt_km": 734.6910461082362, "timestamp": "2025-12-02T08:59:33.109363+00:00", "meta": {"OBJECT_NAME": "COSMOS 2251 DEB", "OBJECT_ID": "1993-036UZ", "EPOCH": "2025-12-01T19:42:09.660096", "MEAN_MOTION": 14.46450669, "ECCENTRICITY": 0.0013741, "INCLINATION": 74.0388, "RA_OF_ASC_NODE": 224.0914, "ARG_OF_PERICENTER": 318.5063, "MEAN_ANOMALY": 112.859, "EPHEMERIS_TYPE": 0, "CLASSIFICATION_TYPE": "U", "NORAD_CAT_ID": 34563, "ELEMENT_SET_NO": 999, "REV_AT_EPOCH": 88039, "BSTAR": 0.000495, "MEAN_MOTION_DOT": 1.755e-05, "MEAN_MOTION_DDOT": 0}, "tle": {"line1": "1 34563U 93036UZ  25335.82094514  .00001755  00000+0  49500-3 0  9991", "line2": "2 34563  74.0388 224.0914 0013741 318.5063 112.8590 14.46450669880396"}}, "geometry": {"type": "Point", "coordinates": [-93.54688898446062, 67.38444821875729]}}, {"type": "Feature", "properties": {"norad_id": 34564, "name": "COSMOS 2251 DEB", "group": "cosmos-2251-debris", "lat": 63.98221725226113, "lon": -66.89914197690145, "alt_km": 744.344257200517, "timestamp": "2025-12-02T08:59:33.109374+00:00", "meta": {"OBJECT_NAME": "COSMOS 2251 DEB", "OBJECT_ID": "1993-036VA", "EPOCH": "2025-12-01T23:15:33.486048", "MEAN_MOTION": 14.40658336, "ECCENTRICITY": 0.0018574, "INCLINATION": 74.0328, "RA_OF_ASC_NODE": 257.9373, "ARG_OF_PERICENTER": 3.9385, "MEAN_ANOMALY": 122.6047, "EPHEMERIS_TYPE": 0, "CLASSIFICATION_TYPE": "U", "NORAD_CAT_ID": 34564, "ELEMENT_SET_NO": 999, "REV_AT_EPOCH": 87851, "BSTAR": 0.00032503, "MEAN_MOTION_DOT": 1.013e-05, "MEAN_MOTION_DDOT": 0}, "tle": {"line1": "1 34564U 93036VA  25335.96913757  .00001013  00000+0  32503-3 0  9998", "line2": "2 34564  74.0328 257.9373 0018574   3.9385 122.6047 14.40658336878518"}}, "geometry": {"type": "Point", "coordinates": [-66.89914197690145, 63.98221725226113]}}, {"type": "Feature", "properties": {"norad_id": 34567, "name": "COSMOS 2251 DEB", "group": "cosmos-2251-debris", "lat": 16.353596277706295, "lon": -179.7480330282266, "alt_km": 842.8424868851962, "timestamp": "2025-12-02T08:59:33.109384+00:00", "meta": {"OBJECT_NAME": "COSMOS 2251 DEB", "OBJECT_ID": "1993-036VD", "EPOCH": "2025-12-02T01:03:00.429408", "MEAN_MOTION": 14.23999079, "ECCENTRICITY": 0.0074701, "INCLINATION": 74.04, "RA_OF_ASC_NODE": 176.0304, "ARG_OF_PERICENTER": 252.5589, "MEAN_ANOMALY": 228.0525, "EPHEMERIS_TYPE": 0, "CLASSIFICATION_TYPE": "U", "NORAD_CAT_ID": 34567, "ELEMENT_SET_NO": 999, "REV_AT_EPOCH": 86972, "BSTAR": 0.00022992, "MEAN_MOTION_DOT": 5.17e-06, "MEAN_MOTION_DDOT": 0}, "tle": {"line1": "1 34567U 93036VD  25336.04375497  .00000517  00000+0  22992-3 0  9993", "line2": "2 34567  74.0400 176.0304 0074701 252.5589 228.0525 14.23999079869727"}}, "geometry": {"type": "Point", "coordinates": [-179.7480330282266, 16.353596277706295]}}, {"type": "Feature", "properties": {"norad_id": 34569, "name": "COSMOS 2251 DEB", "group": "cosmos-2251-debris", "lat": 21.597181431444117, "lon": 30.350493921002847, "alt_km": 845.3676427173359, "timestamp": "2025-12-02T08:59:33.109394+00:00", "meta": {"OBJECT_NAME": "COSMOS 2251 DEB", "OBJECT_ID": "1993-036VF", "EPOCH": "2025-12-02T02:05:09.434400", "MEAN_MOTION": 14.2470228, "ECCENTRICITY": 0.0156813, "INCLINATION": 73.9904, "RA_OF_ASC_NODE": 217.3969, "ARG_OF_PERICENTER": 48.2546, "MEAN_ANOMALY": 72.0417, "EPHEMERIS_TYPE": 0, "CLASSIFICATION_TYPE": "U", "NORAD_CAT_ID": 34569, "ELEMENT_SET_NO": 999, "REV_AT_EPOCH": 86816, "BSTAR": 0.0006604, "MEAN_MOTION_DOT": 1.721e-05, "MEAN_MOTION_DDOT": 0}, "tle": {"line1": "1 34569U 93036VF  25336.08691475  .00001721  00000+0  66040-3 0  9996", "line2": "2 34569  73.9904 217.3969 0156813  48.2546  72.0417 14.24702280868161"}}, "geometry": {"type": "Point", "coordinates": [30.350493921002847, 21.597181431444117]}}]}